#aV2015  9  7  0  0  0.00000000     288 DD+AD WGS84 FIT  NGA
## 1861  86400.00000000   300.00000000 57272 0.0000000000000
+   31     1  2  3  4  5  6  7  8  9 11 12 13 14 15 16 17 18
+         19 20 21 22 23 24 25 26 27 28 29 30 31 32  0  0  0
+          0  0  0  0  0  0  0  0  0  0  0  0  0  0  0  0  0
+          0  0  0  0  0  0  0  0  0  0  0  0  0  0  0  0  0
+          0  0  0  0  0  0  0  0  0  0  0  0  0  0  0  0  0
++         2  2  2  2  2  2  2  2  2  2  2  2  2  2  2  2  2
++         2  2  2  2  2  2  2  2  2  2  2  2  2  2  0  0  0
++         0  0  0  0  0  0  0  0  0  0  0  0  0  0  0  0  0
++         0  0  0  0  0  0  0  0  0  0  0  0  0  0  0  0  0
++         0  0  0  0  0  0  0  0  0  0  0  0  0  0  0  0  0
%c cc cc ccc ccc cccc cccc cccc cccc ccccc ccccc ccccc ccccc
%c cc cc ccc ccc cccc cccc cccc cccc ccccc ccccc ccccc ccccc
%f  0.0000000  0.000000000  0.00000000000  0.000000000000000
%f  0.0000000  0.000000000  0.00000000000  0.000000000000000
%i    0    0    0    0      0      0      0      0         0
%i    0    0    0    0      0      0      0      0         0
/*      NGA, ST. LOUIS,MO.                                  
/*   EPHEMERIS COMPUTED FROM  1 DAYS OF DATA                
/*   EPOCHA SMOOTHER                                       
/* CCCCCCCCCCCCCCCCCCCCCCCCCCCCCCCCCCCCCCCCCCCCCCCCCCCCCCCCC
*  2015  9  7 12 55  0.00000000
P  1  13026.736332 -22607.406414  -4414.492892      0.065265                    
V  1   5610.311341  -2742.491578  31273.077703      0.006773                    
P  2 -19427.747615   8876.549086 -15121.416076    587.823547                    
V  2   9058.273076 -18175.579422 -22197.229034      0.017392                    
P  3   9353.681801 -13621.235625 -20788.049902     20.316438                    
V  3  26169.204695   3733.928490   9298.161108      0.012431                    
P  4  17501.642680 -19224.027130   4355.580677    -18.046184                    
V  4   -495.313870   7018.986021  30813.562561     -0.040316                    
P  5 -25368.744289   2909.306317   7603.969698   -198.067543                    
V  5  -9352.288178  -3884.642390 -29304.886465      0.041089                    
P  6 -15855.085379  -3166.920967 -21070.797630     53.379781                    
V  6  15234.532874 -21998.224780  -8163.282151      0.074709                    
P  7   1020.153010 -20332.974083  16963.534445    483.825968                    
V  7  14564.405187 -15843.657388 -20389.825717      0.018646                    
P  8   9001.230391 -14685.628437  20262.772584     -4.426639                    
V  8  11336.154320  23015.414462  11654.865215     -0.013416                    
P  9  -7091.959259 -25047.211403  -5234.063796    -10.239399                    
V  9   5340.388192   4900.747740 -30731.595588      0.011439                    
P 11  10024.301007 -24187.681497   3588.600625   -602.716556                    
V 11   3296.931022   6446.288224  29806.174764     -0.023898                    
P 12 -12337.639975  11638.539650 -20484.140515    325.929092                    
V 12 -25308.277036  -4866.308193  12746.092972      0.034869                    
P 13 -14433.262563   3698.681975  21852.712263   -147.243666                    
V 13  -8207.296948 -26803.498029   -987.717036     -0.029746                    
P 14  14408.381423  19820.808713 -10185.370685     36.383897                    
V 14   2197.621246  13266.133494  28072.513772     -0.026106                    
P 15  -8706.196694  15290.238264  19710.975698   -270.294940                    
V 15 -12796.365109 -22037.476546  11714.806648     -0.020411                    
P 16  25622.035925   -471.205924   7593.838961    -89.093779                    
V 16   9220.657050   3148.585871 -30229.640317      0.040301                    
P 17 -15182.036238 -18885.965832 -10814.078611   -186.888749                    
V 17  -3182.292846 -13881.006500  27727.584790     -0.012791                    
P 18  11030.895049  15457.318546  19182.168650    432.010160                    
V 18 -23386.874144   -505.738303  13950.994505      0.032043                    
P 19   6632.201625 -18356.611376  17607.296711   -519.696487                    
V 19   8884.437173  21199.027874  18948.631748     -0.006310                    
P 20 -12957.851255  13584.355424  18666.501979    353.340558                    
V 20 -24037.390210  -2655.118072 -14553.011485      0.030873                    
P 21   3394.023400  19120.525904  18690.334947   -477.938337                    
V 21 -14501.871958  17311.227426 -16014.424617     -0.028214                    
P 22  22429.085396   9999.791273  10576.225461    388.988147                    
V 22 -13340.059212   2121.386875  26716.648671      0.039136                    
P 23   3724.967752 -20453.394036 -16102.762016   -131.812232                    
V 23  10634.276588  18246.812791 -20941.446107     -0.022200                    
P 24 -14411.617953  22162.518819  -1476.456697     -4.279545                    
V 24  -3689.149883   -351.733669  31594.927992     -0.006363                    
P 25   2191.887739  15056.218946 -21886.389233    -35.553252                    
V 25 -27336.049326  -2791.288326  -4520.912302     -0.050420                    
P 26  25986.904675   4738.764423  -2801.898010    -46.272262                    
V 26  -3828.761586   2405.414201 -31485.176271     -0.103088                    
P 27  15583.906825  -1270.842634  21459.184658     17.844983                    
V 27  10633.948396  25115.111391  -6108.485320      0.029567                    
P 28 -18960.290425 -12907.900737  14085.162806    465.907805                    
V 28  16703.544421   1806.980042  25189.982734      0.025716                    
P 29   4099.340016  25199.748714  -7386.431188    632.731084                    
V 29  -5379.207345  -7991.983160 -30157.889370      0.022615                    
P 30  -8468.806168 -13332.404570  21341.561094     20.267670                    
V 30  18050.904642 -20268.354657  -5579.806617      0.067622                    
P 31  16110.224413   2494.893083 -20906.970650    303.704836                    
V 31 -16083.062825  21361.306893  -9455.510990     -0.012850                    
P 32  20660.595137  -6897.001979 -14859.129819    -50.335180                    
V 32  18193.848446   6264.547486  22987.940470      0.109563                    
EOF
